NORAD_CAT_ID,OBJECT_NAME,OBJECT_TYPE,EPOCH,MEAN_MOTION,ECCENTRICITY,INCLINATION,RA_OF_ASC_NODE,ARG_OF_PERICENTER,MEAN_ANOMALY,BSTAR,MEAN_MOTION_DOT,MEAN_MOTION_DDOT,TLE_LINE0,TLE_LINE1,TLE_LINE2,SEMIMAJOR_AXIS,PERIOD,APOGEE,PERIGEE,DECAYED
53292.0,STARLINK-4159,PAYLOAD,2023-09-19 01:54:02,15.08840339,0.0001538,53.2169,276.2842,91.1587,268.9581,7.5069e-05,9.07e-06,0.0,0 STARLINK-4159,1 53292U 22086BC  23262.07919091  .00000907  00000-0  75069-4 0  9997,2 53292  53.2169 276.2842 0001538  91.1587 268.9581 15.08840339 64761,6917.879,95.438,540.808,538.68,0.0
53292.0,STARLINK-4159,PAYLOAD,2023-09-20 01:44:49,15.08832676,0.000155,53.2179,271.8219,99.8825,260.2342,3.8292e-05,3.21e-06,0.0,0 STARLINK-4159,1 53292U 22086BC  23263.07279695  .00000321  00000-0  38292-4 0  9994,2 53292  53.2179 271.8219 0001550  99.8825 260.2342 15.08832676 64917,6917.903,95.438,540.84,538.696,0.0
53292.0,STARLINK-4159,PAYLOAD,2023-09-20 08:06:22,15.08823323,0.0001543,53.2172,270.6323,91.9829,268.134,0.00017844,2.552e-05,0.0,0 STARLINK-4159,1 53292U 22086BC  23263.33776079  .00002552  00000-0  17844-3 0  9998,2 53292  53.2172 270.6323 0001543  91.9829 268.1340 15.08823323 65119,6917.931,95.439,540.864,538.729,0.0
53292.0,STARLINK-4159,PAYLOAD,2023-09-20 17:38:41,15.08832631,0.0001561,53.2166,268.8468,101.169,258.9477,1.4951e-05,-5e-07,0.0,0 STARLINK-4159,1 53292U 22086BC  23263.73519959 -.00000050  00000-0  14951-4 0  9993,2 53292  53.2166 268.8468 0001561 101.1690 258.9477 15.08832631 65177,6917.903,95.438,540.848,538.688,0.0
53292.0,STARLINK-4159,PAYLOAD,2023-09-21 09:32:32,15.08835905,0.0001622,53.2162,265.8721,94.92,265.1978,-2.2067e-05,-6.39e-06,0.0,0 STARLINK-4159,1 53292U 22086BC  23264.39760175 -.00000639  00000-0 -22067-4 0  9995,2 53292  53.2162 265.8721 0001622  94.9200 265.1978 15.08835905 65113,6917.893,95.438,540.88,538.636,0.0
53292.0,STARLINK-4159,PAYLOAD,2023-09-21 17:29:28,15.08834957,0.0001461,53.2163,264.3855,91.3032,268.8128,7.6454e-05,9.29e-06,0.0,0 STARLINK-4159,1 53292U 22086BC  23264.72880047  .00000929  00000-0  76454-4 0  9992,2 53292  53.2163 264.3855 0001461  91.3032 268.8128 15.08834957 65327,6917.896,95.438,540.772,538.75,0.0
53292.0,STARLINK-4159,PAYLOAD,2023-09-22 04:37:09,15.08841745,0.000143,53.2163,262.3035,90.9615,269.1541,0.00011398,1.527e-05,0.0,0 STARLINK-4159,1 53292U 22086BC  23265.19247613  .00001527  00000-0  11398-3 0  9990,2 53292  53.2163 262.3035 0001430  90.9615 269.1541 15.08841745 65239,6917.875,95.437,540.729,538.751,0.0
53292.0,STARLINK-4159,PAYLOAD,2023-09-22 09:23:19,15.08844282,0.0001379,53.2158,261.4113,93.0678,267.0472,0.00013197,1.813e-05,0.0,0 STARLINK-4159,1 53292U 22086BC  23265.39119379  .00001813  00000-0  13197-3 0  9996,2 53292  53.2158 261.4113 0001379  93.0678 267.0472 15.08844282 65425,6917.867,95.437,540.686,538.778,0.0
53292.0,STARLINK-4159,PAYLOAD,2023-09-22 17:20:14,15.08844438,0.0001373,53.2158,259.9245,92.9229,267.1921,0.00012651,1.726e-05,0.0,0 STARLINK-4159,1 53292U 22086BC  23265.72239341  .00001726  00000-0  12651-3 0  9992,2 53292  53.2158 259.9245 0001373  92.9229 267.1921 15.08844438 65475,6917.867,95.437,540.682,538.782,0.0
53292.0,STARLINK-4159,PAYLOAD,2023-09-23 06:03:19,15.08846071,0.000149,53.2164,257.5444,98.0946,262.0215,0.00013656,1.886e-05,0.0,0 STARLINK-4159,1 53292U 22086BC  23266.25231186  .00001886  00000-0  13656-3 0  9993,2 53292  53.2164 257.5444 0001490  98.0946 262.0215 15.08846071 65396,6917.862,95.437,540.758,538.696,0.0
53292.0,STARLINK-4159,PAYLOAD,2023-09-24 02:43:20,15.08841771,0.0001481,53.2165,253.6785,101.8596,258.2563,-6.6619e-06,-3.94e-06,0.0,0 STARLINK-4159,1 53292U 22086BC  23267.11343672 -.00000394  00000-0 -66619-5 0  9997,2 53292  53.2165 253.6785 0001481 101.8596 258.2563 15.08841771 65526,6917.875,95.437,540.765,538.715,0.0
53292.0,STARLINK-4159,PAYLOAD,2023-09-24 09:04:53,15.08844667,0.00015,53.2168,252.4888,104.4859,255.63,-1.1837e-06,-3.07e-06,0.0,0 STARLINK-4159,1 53292U 22086BC  23267.37839384 -.00000307  00000-0 -11837-5 0  9991,2 53292  53.2168 252.4888 0001500 104.4859 255.6300 15.08844667 65722,6917.866,95.437,540.769,538.693,0.0
53292.0,STARLINK-4159,PAYLOAD,2023-09-25 08:55:39,15.08845899,0.0001361,53.2157,248.0295,100.2167,259.8979,0.00010382,1.365e-05,0.0,0 STARLINK-4159,1 53292U 22086BC  23268.37198965  .00001365  00000-0  10382-3 0  9990,2 53292  53.2157 248.0295 0001361 100.2167 259.8979 15.08845899 65719,6917.862,95.437,540.669,538.786,0.0
53292.0,STARLINK-4159,PAYLOAD,2023-09-25 15:17:12,15.0884964,0.0001339,53.2157,246.8399,97.3404,262.7741,3.5581e-05,2.79e-06,0.0,0 STARLINK-4159,1 53292U 22086BC  23268.63694747  .00000279  00000-0  35581-4 0  9990,2 53292  53.2157 246.8399 0001339  97.3404 262.7741 15.08849640 65915,6917.851,95.437,540.642,538.79,0.0
53292.0,STARLINK-4159,PAYLOAD,2023-09-26 02:24:54,15.08843706,0.0001311,53.2157,244.7588,99.1881,260.9259,3.6727e-05,2.97e-06,0.0,0 STARLINK-4159,1 53292U 22086BC  23269.10063171  .00000297  00000-0  36727-4 0  9997,2 53292  53.2157 244.7588 0001311  99.1881 260.9259 15.08843706 65822,6917.869,95.437,540.641,538.827,0.0
53292.0,STARLINK-4159,PAYLOAD,2023-09-26 04:00:17,15.08844111,0.0001326,53.216,244.4614,100.5677,259.5465,4.327e-05,4.01e-06,0.0,0 STARLINK-4159,1 53292U 22086BC  23269.16687121  .00000401  00000-0  43270-4 0  9998,2 53292  53.2160 244.4614 0001326 100.5677 259.5465 15.08844111 65991,6917.868,95.437,540.65,538.816,0.0
53292.0,STARLINK-4159,PAYLOAD,2023-09-26 21:29:32,15.08831767,0.0001379,53.2156,241.1902,97.9137,262.2012,3.0887e-05,2.04e-06,0.0,0 STARLINK-4159,1 53292U 22086BC  23269.89552032  .00000204  00000-0  30887-4 0  9991,2 53292  53.2156 241.1902 0001379  97.9137 262.2012 15.08831767 66104,6917.906,95.438,540.725,538.817,0.0
53292.0,STARLINK-4159,PAYLOAD,2023-09-27 07:01:52,15.08833323,0.0001365,53.2167,239.4065,84.6651,275.4497,-4.2812e-05,-9.69e-06,0.0,0 STARLINK-4159,1 53292U 22086BC  23270.29296420 -.00000969  00000-0 -42812-4 0  9994,2 53292  53.2167 239.4065 0001365  84.6651 275.4497 15.08833323 66007,6917.901,95.438,540.71,538.822,0.0
53292.0,STARLINK-4159,PAYLOAD,2023-09-28 06:52:39,15.08836952,0.0001447,53.2162,234.9469,86.0638,274.052,-8.6428e-06,-4.25e-06,0.0,0 STARLINK-4159,1 53292U 22086BC  23271.28656571 -.00000425  00000-0 -86428-5 0  9990,2 53292  53.2162 234.9469 0001447  86.0638 274.0520 15.08836952 66319,6917.89,95.438,540.756,538.754,0.0
53292.0,STARLINK-4159,PAYLOAD,2023-09-29 06:43:26,15.0883736,0.0001592,53.2168,230.4843,81.3882,278.729,0.00015993,2.258e-05,0.0,0 STARLINK-4159,1 53292U 22086BC  23272.28016561  .00002258  00000-0  15993-3 0  9991,2 53292  53.2168 230.4843 0001592  81.3882 278.7290 15.08837360 66300,6917.888,95.438,540.855,538.652,0.0
53292.0,STARLINK-4159,PAYLOAD,2023-09-30 03:23:26,15.08852,0.00015,53.2168,226.6172,93.5456,266.5707,0.00014148,1.965e-05,0.0,0 STARLINK-4159,1 53292U 22086BC  23273.14127558  .00001965  00000-0  14148-3 0  9991,2 53292  53.2168 226.6172 0001500  93.5456 266.5707 15.08852000 66433,6917.844,95.437,540.746,538.671,0.0
53292.0,STARLINK-4159,PAYLOAD,2023-09-30 14:31:09,15.08832485,0.0001981,53.217,224.5357,92.0992,268.0227,-1.1797e-05,-4.76e-06,0.0,0 STARLINK-4159,1 53292U 22086BC  23273.60497265 -.00000476  00000-0 -11797-4 0  9993,2 53292  53.2170 224.5357 0001981  92.0992 268.0227 15.08832485 66507,6917.903,95.438,541.139,538.398,0.0
53292.0,STARLINK-4159,PAYLOAD,2023-10-01 03:14:14,15.08839356,0.0001545,53.2166,222.1578,92.8741,267.2428,-6.1701e-05,-1.27e-05,0.0,0 STARLINK-4159,1 53292U 22086BC  23274.13488978 -.00001270  00000-0 -61701-4 0  9996,2 53292  53.2166 222.1578 0001545  92.8741 267.2428 15.08839356 66583,6917.882,95.438,540.816,538.679,0.0
53292.0,STARLINK-4159,PAYLOAD,2023-10-01 20:43:28,15.08849242,0.0001576,53.2175,218.8875,106.3751,253.7414,-0.00014095,-2.531e-05,0.0,0 STARLINK-4159,1 53292U 22086BC  23274.86352698 -.00002531  00000-0 -14095-3 0  9999,2 53292  53.2175 218.8875 0001576 106.3751 253.7414 15.08849242 66851,6917.852,95.437,540.807,538.627,0.0
53292.0,STARLINK-4159,PAYLOAD,2023-10-02 03:05:00,15.08853206,0.00014,53.2173,217.7006,93.9394,266.1758,-6.2311e-05,-1.28e-05,0.0,0 STARLINK-4159,1 53292U 22086BC  23275.12848104 -.00001280  00000-0 -62311-4 0  9996,2 53292  53.2173 217.7006 0001400  93.9394 266.1758 15.08853206 66734,6917.84,95.437,540.674,538.737,0.0
53292.0,STARLINK-4159,PAYLOAD,2023-10-02 20:34:16,15.08826534,0.0001009,53.2167,214.4276,87.6308,272.48,7.006e-05,8.27e-06,0.0,0 STARLINK-4159,1 53292U 22086BC  23275.85713578  .00000827  00000-0  70060-4 0  9996,2 53292  53.2167 214.4276 0001009  87.6308 272.4800 15.08826534 66844,6917.922,95.438,540.485,539.089,0.0
53292.0,STARLINK-4159,PAYLOAD,2023-10-03 04:31:11,15.08846499,0.0001345,53.2158,212.9419,95.8389,264.2756,0.00020963,3.05e-05,0.0,0 STARLINK-4159,1 53292U 22086BC  23276.18832559  .00003050  00000-0  20963-3 0  9991,2 53292  53.2158 212.9419 0001345  95.8389 264.2756 15.08846499 66895,6917.861,95.437,540.656,538.795,0.0
53292.0,STARLINK-4159,PAYLOAD,2023-10-03 12:28:07,15.08842399,0.000123,53.2158,211.4563,96.3534,263.7598,9.0391e-05,1.151e-05,0.0,0 STARLINK-4159,1 53292U 22086BC  23276.51952739  .00001151  00000-0  90391-4 0  9994,2 53292  53.2158 211.4563 0001230  96.3534 263.7598 15.08842399 67108,6917.873,95.437,540.589,538.887,0.0
53292.0,STARLINK-4159,PAYLOAD,2023-10-04 04:21:58,15.08845968,0.0001314,53.2172,208.4802,95.488,264.6262,9.7064e-05,1.257e-05,0.0,0 STARLINK-4159,1 53292U 22086BC  23277.18192806  .00001257  00000-0  97064-4 0  9990,2 53292  53.2172 208.4802 0001314  95.4880 264.6262 15.08845968 67049,6917.862,95.437,540.636,538.818,0.0
53292.0,STARLINK-4159,PAYLOAD,2023-10-04 12:18:54,15.08846391,0.0001229,53.2165,206.9943,90.8443,269.269,4.3871e-05,4.11e-06,0.0,0 STARLINK-4159,1 53292U 22086BC  23277.51312844  .00000411  00000-0  43871-4 0  9991,2 53292  53.2165 206.9943 0001229  90.8443 269.2690 15.08846391 67259,6917.861,95.437,540.576,538.876,0.0
